{
  "type": "FeatureCollection",
  "features": [
    {
      "type": "Feature",
      "geometry": {
        "type": "Point",
        "coordinates": [35.2167, 31.7667]
      },
      "properties": {
        "apostle": "Matthias",
        "name": "Jérusalem",
        "dates": [30],
        "type": "visited_place",
        "fiability": 0.8,
        "biblical_reference": ["Ac 1:21-26"],
        "source": ["Bible AELF", "Actes de Matthias (apocryphe)"],
        "description": "Élu pour remplacer Judas Iscariote.",
        "events": [
          { "name": "Élection comme apôtre (remplace Judas)", "date": 30 }
        ]
      }
    },
    {
      "type": "Feature",
      "geometry": {
        "type": "Point",
        "coordinates": [34.8333, 39.0000]
      },
      "properties": {
        "apostle": "Matthias",
        "name": "Cappadoce",
        "dates": [30, 60],
        "type": "visited_place",
        "fiability": 0.4,
        "biblical_reference": [],
        "source": ["Actes de Matthias (apocryphe)", "Tradition arménienne"],
        "description": "Missionnaire en Cappadoce. Martyre.",
        "events": [
          { "name": "Prédication en Cappadoce", "date": 30 },
          { "name": "Martyre en Cappadoce", "date": 60 }
        ]
      }
    },
    {
      "type": "Feature",
      "geometry": {
        "type": "LineString",
        "coordinates": [
          [35.2167, 31.7667],
          [34.8333, 39.0000]
        ]
      },
      "properties": {
        "apostle": "Matthias",
        "type": "journey",
        "start_date": 30,
        "end_date": 60,
        "fiability": 0.4,
        "biblical_reference": ["Ac 1:21-26"],
        "source": ["Actes de Matthias (apocryphe)"],
        "description": "Voyage de Matthias : Jérusalem → Cappadoce."
      }
    }
  ],
  "metadata": {
    "title": "Voyages et missions de l'apôtre Matthias",
    "description": "Carte des voyages de Matthias avec des sources catholiques.",
    "creation_date": "2026-05-13",
    "main_sources": [
      "Bible AELF",
      "Actes de Matthias (apocryphe)",
      "Tradition arménienne"
    ]
  }
}